{
  "norad_id": 53076,
  "name": "STARLINK-4347",
  "history": [
    {
      "epoch": "2026-03-28T22:13:14.179584Z",
      "apogee_km": 564.7656076539815,
      "perigee_km": 560.6699480666621,
      "latitude_deg": 2.4144694593669705e-06,
      "longitude_deg": 109.39961430441126,
      "height_km": 566.8526082218794,
      "semi_major_axis_km": 6940.8547778603215,
      "eccentricity": 0.00029504,
      "inclination_deg": 97.6039,
      "raan_deg": 269.048,
      "arg_perigee_deg": 121.8114,
      "mean_anomaly_deg": 238.3398,
      "mean_motion_rev_day": 15.0135476
    },
    {
      "epoch": "2026-03-29T03:00:53.548128Z",
      "apogee_km": 563.671385615663,
      "perigee_km": 560.5524377547526,
      "latitude_deg": -4.127765319025845e-05,
      "longitude_deg": 37.4848909071683,
      "height_km": 566.0737226714585,
      "semi_major_axis_km": 6940.2489116852075,
      "eccentricity": 0.0002247,
      "inclination_deg": 97.604,
      "raan_deg": 269.2442,
      "arg_perigee_deg": 125.4734,
      "mean_anomaly_deg": 234.67,
      "mean_motion_rev_day": 15.01551361
    },
    {
      "epoch": "2026-03-30T01:23:30.523488Z",
      "apogee_km": 562.2919206349097,
      "perigee_km": 558.5672980790068,
      "latitude_deg": -3.951234763541744e-05,
      "longitude_deg": 61.82793901405138,
      "height_km": 563.7449602908937,
      "semi_major_axis_km": 6938.566609356958,
      "eccentricity": 0.0002684,
      "inclination_deg": 97.6074,
      "raan_deg": 270.1603,
      "arg_perigee_deg": 98.0105,
      "mean_anomaly_deg": 262.1424,
      "mean_motion_rev_day": 15.02097486
    }
  ]
}